CELESTIS-17 & SHERPA-FX1
1 47486U 21006CB  26068.64311433  .00007207  00000+0  24301-3 0  9993
2 47486  97.2397 112.1052 0006630 178.1385 181.9882 15.30994801284065
STARLINK-36529          
1 67457U 26008N   26068.38659418  .00035307  00000+0  12853-2 0  9999
2 67457  42.9927 207.1220 0002215 130.3915 229.7130 15.27606518  9521
