[{"OBJECT_NAME":"CELESTIS-17 & SHERPA-FX1","OBJECT_ID":"2021-006CB","EPOCH":"2026-03-09T15:26:05.078112","MEAN_MOTION":15.30994801,"ECCENTRICITY":0.000663,"INCLINATION":97.2397,"RA_OF_ASC_NODE":112.1052,"ARG_OF_PERICENTER":178.1385,"MEAN_ANOMALY":181.9882,"EPHEMERIS_TYPE":0,"CLASSIFICATION_TYPE":"U","NORAD_CAT_ID":47486,"ELEMENT_SET_NO":999,"REV_AT_EPOCH":28406,"BSTAR":0.00024301,"MEAN_MOTION_DOT":7.207e-5,"MEAN_MOTION_DDOT":0},{"OBJECT_NAME":"STARLINK-36529","OBJECT_ID":"2026-008N","EPOCH":"2026-03-09T09:16:41.737152","MEAN_MOTION":15.27606518,"ECCENTRICITY":0.00022151,"INCLINATION":42.9927,"RA_OF_ASC_NODE":207.122,"ARG_OF_PERICENTER":130.3915,"MEAN_ANOMALY":229.713,"EPHEMERIS_TYPE":0,"CLASSIFICATION_TYPE":"U","NORAD_CAT_ID":67457,"ELEMENT_SET_NO":999,"REV_AT_EPOCH":952,"BSTAR":0.0012853358,"MEAN_MOTION_DOT":0.00035307,"MEAN_MOTION_DDOT":0}]
